{
  "type": "FeatureCollection",
  "features": [
    {
      "type": "Feature",
      "properties": {
        "norad_id": 66871,
        "name": "STARLINK-36095",
        "group": "last-30-days",
        "lat": -12.685798648130739,
        "lon": -131.2072174064535,
        "alt_km": 415.7625733041932,
        "timestamp": "2025-12-27T05:29:37.917878+00:00",
        "meta_object_name": "STARLINK-36095",
        "meta_object_id": "2025-281Z",
        "meta_epoch": "2025-12-26T22:00:01.999584",
        "meta_mean_motion": 15.50531616,
        "meta_eccentricity": 0.00010038,
        "meta_inclination": 43.0005,
        "meta_ra_of_asc_node": 36.6409,
        "meta_arg_of_pericenter": 241.3454,
        "meta_mean_anomaly": 12.4537,
        "meta_ephemeris_type": 0,
        "meta_classification_type": "U",
        "meta_norad_cat_id": 66871,
        "meta_element_set_no": 999,
        "meta_rev_at_epoch": 369,
        "meta_bstar": 0.0017455222,
        "meta_mean_motion_dot": 0.00103245,
        "meta_mean_motion_ddot": 0,
        "tle_line1": "1 66871U 25281Z   25360.91668981  .00103245  00000+0  17455-2 0  9998",
        "tle_line2": "2 66871  43.0005  36.6409 0001003 241.3454  12.4537 15.50531616  3690"
      },
      "geometry": {
        "type": "Point",
        "coordinates": [
          -131.2072174064535,
          -12.685798648130739
        ]
      }
    },
    {
      "type": "Feature",
      "properties": {
        "norad_id": 66872,
        "name": "STARLINK-36082",
        "group": "last-30-days",
        "lat": -13.945215315496696,
        "lon": -129.7361986724093,
        "alt_km": 415.7928362729317,
        "timestamp": "2025-12-27T05:29:37.917888+00:00",
        "meta_object_name": "STARLINK-36082",
        "meta_object_id": "2025-281AA",
        "meta_epoch": "2025-12-26T22:00:01.999584",
        "meta_mean_motion": 15.5053445,
        "meta_eccentricity": 0.0001289,
        "meta_inclination": 43.0005,
        "meta_ra_of_asc_node": 36.6362,
        "meta_arg_of_pericenter": 247.2615,
        "meta_mean_anomaly": 8.4491,
        "meta_ephemeris_type": 0,
        "meta_classification_type": "U",
        "meta_norad_cat_id": 66872,
        "meta_element_set_no": 999,
        "meta_rev_at_epoch": 356,
        "meta_bstar": 0.0017042118,
        "meta_mean_motion_dot": 0.00100772,
        "meta_mean_motion_ddot": 0,
        "tle_line1": "1 66872U 25281AA  25360.91668981  .00100772  00000+0  17042-2 0  9993",
        "tle_line2": "2 66872  43.0005  36.6362 0001289 247.2615   8.4491 15.50534450  3568"
      },
      "geometry": {
        "type": "Point",
        "coordinates": [
          -129.7361986724093,
          -13.945215315496696
        ]
      }
    },
    {
      "type": "Feature",
      "properties": {
        "norad_id": 66873,
        "name": "STARLINK-36128",
        "group": "last-30-days",
        "lat": -17.680590623434128,
        "lon": -125.20220044883689,
        "alt_km": 416.04599881312515,
        "timestamp": "2025-12-27T05:29:37.917898+00:00",
        "meta_object_name": "STARLINK-36128",
        "meta_object_id": "2025-281AB",
        "meta_epoch": "2025-12-26T22:00:01.999584",
        "meta_mean_motion": 15.50536574,
        "meta_eccentricity": 0.00012253,
        "meta_inclination": 43.0005,
        "meta_ra_of_asc_node": 36.6211,
        "meta_arg_of_pericenter": 240.1024,
        "meta_mean_anomaly": 21.3588,
        "meta_ephemeris_type": 0,
        "meta_classification_type": "U",
        "meta_norad_cat_id": 66873,
        "meta_element_set_no": 999,
        "meta_rev_at_epoch": 369,
        "meta_bstar": 0.0017312994,
        "meta_mean_motion_dot": 0.00102408,
        "meta_mean_motion_ddot": 0,
        "tle_line1": "1 66873U 25281AB  25360.91668981  .00102408  00000+0  17313-2 0  9993",
        "tle_line2": "2 66873  43.0005  36.6211 0001225 240.1024  21.3588 15.50536574  3692"
      },
      "geometry": {
        "type": "Point",
        "coordinates": [
          -125.20220044883689,
          -17.680590623434128
        ]
      }
    },
    {
      "type": "Feature",
      "properties": {
        "norad_id": 66874,
        "name": "STARLINK-36129",
        "group": "last-30-days",
        "lat": -15.21053551190269,
        "lon": -128.2312221795787,
        "alt_km": 415.8856287436611,
        "timestamp": "2025-12-27T05:29:37.917908+00:00",
        "meta_object_name": "STARLINK-36129",
        "meta_object_id": "2025-281AC",
        "meta_epoch": "2025-12-26T22:00:01.999584",
        "meta_mean_motion": 15.50577562,
        "meta_eccentricity": 0.00011895,
        "meta_inclination": 43.0006,
        "meta_ra_of_asc_node": 36.6315,
        "meta_arg_of_pericenter": 243.701,
        "meta_mean_anomaly": 13.9132,
        "meta_ephemeris_type": 0,
        "meta_classification_type": "U",
        "meta_norad_cat_id": 66874,
        "meta_element_set_no": 999,
        "meta_rev_at_epoch": 369,
        "meta_bstar": 0.00072441856,
        "meta_mean_motion_dot": 0.00042384,
        "meta_mean_motion_ddot": 0,
        "tle_line1": "1 66874U 25281AC  25360.91668981  .00042384  00000+0  72442-3 0  9995",
        "tle_line2": "2 66874  43.0006  36.6315 0001189 243.7010  13.9132 15.50577562  3696"
      },
      "geometry": {
        "type": "Point",
        "coordinates": [
          -128.2312221795787,
          -15.21053551190269
        ]
      }
    },
    {
      "type": "Feature",
      "properties": {
        "norad_id": 66875,
        "name": "STARLINK-36053",
        "group": "last-30-days",
        "lat": -18.896334063913933,
        "lon": -123.65969693696361,
        "alt_km": 416.1672091051987,
        "timestamp": "2025-12-27T05:29:37.917918+00:00",
        "meta_object_name": "STARLINK-36053",
        "meta_object_id": "2025-281AD",
        "meta_epoch": "2025-12-26T22:00:01.999584",
        "meta_mean_motion": 15.5053329,
        "meta_eccentricity": 0.00012144,
        "meta_inclination": 43.0004,
        "meta_ra_of_asc_node": 36.6156,
        "meta_arg_of_pericenter": 241.8927,
        "meta_mean_anomaly": 21.4801,
        "meta_ephemeris_type": 0,
        "meta_classification_type": "U",
        "meta_norad_cat_id": 66875,
        "meta_element_set_no": 999,
        "meta_rev_at_epoch": 369,
        "meta_bstar": 0.0017607896,
        "meta_mean_motion_dot": 0.0010417,
        "meta_mean_motion_ddot": 0,
        "tle_line1": "1 66875U 25281AD  25360.91668981  .00104170  00000+0  17608-2 0  9990",
        "tle_line2": "2 66875  43.0004  36.6156 0001214 241.8927  21.4801 15.50533290  3690"
      },
      "geometry": {
        "type": "Point",
        "coordinates": [
          -123.65969693696361,
          -18.896334063913933
        ]
      }
    },
    {
      "type": "Feature",
      "properties": {
        "norad_id": 66876,
        "name": "STARLINK-35702",
        "group": "last-30-days",
        "lat": -16.445672255741982,
        "lon": -126.73286042456387,
        "alt_km": 416.0378765008636,
        "timestamp": "2025-12-27T05:29:37.917930+00:00",
        "meta_object_name": "STARLINK-35702",
        "meta_object_id": "2025-281AE",
        "meta_epoch": "2025-12-26T22:00:01.999584",
        "meta_mean_motion": 15.50536569,
        "meta_eccentricity": 0.00011492,
        "meta_inclination": 43.0004,
        "meta_ra_of_asc_node": 36.6263,
        "meta_arg_of_pericenter": 246.3545,
        "meta_mean_anomaly": 13.1869,
        "meta_ephemeris_type": 0,
        "meta_classification_type": "U",
        "meta_norad_cat_id": 66876,
        "meta_element_set_no": 999,
        "meta_rev_at_epoch": 369,
        "meta_bstar": 0.0017841849,
        "meta_mean_motion_dot": 0.0010559,
        "meta_mean_motion_ddot": 0,
        "tle_line1": "1 66876U 25281AE  25360.91668981  .00105590  00000+0  17842-2 0  9998",
        "tle_line2": "2 66876  43.0004  36.6263 0001149 246.3545  13.1869 15.50536569  3697"
      },
      "geometry": {
        "type": "Point",
        "coordinates": [
          -126.73286042456387,
          -16.445672255741982
        ]
      }
    },
    {
      "type": "Feature",
      "properties": {
        "norad_id": 66877,
        "name": "ZQ-3 R/B",
        "group": "last-30-days",
        "lat": -14.811447279040877,
        "lon": -169.1236763811634,
        "alt_km": 281.0056120518411,
        "timestamp": "2025-12-27T05:29:37.917940+00:00",
        "meta_object_name": "ZQ-3 R/B",
        "meta_object_id": "2025-282A",
        "meta_epoch": "2025-12-26T17:16:15.910176",
        "meta_mean_motion": 14.88008524,
        "meta_eccentricity": 0.06613306,
        "meta_inclination": 56.9484,
        "meta_ra_of_asc_node": 2.9971,
        "meta_arg_of_pericenter": 244.7229,
        "meta_mean_anomaly": 108.3888,
        "meta_ephemeris_type": 0,
        "meta_classification_type": "U",
        "meta_norad_cat_id": 66877,
        "meta_element_set_no": 999,
        "meta_rev_at_epoch": 345,
        "meta_bstar": 0.00016026682,
        "meta_mean_motion_dot": 0.00975006,
        "meta_mean_motion_ddot": 7.991729e-06,
        "tle_line1": "1 66877U 25282A   25360.71962859  .00975006  79917-5  16027-3 0  9990",
        "tle_line2": "2 66877  56.9484   2.9971 0661330 244.7229 108.3888 14.88008524  3457"
      },
      "geometry": {
        "type": "Point",
        "coordinates": [
          -169.1236763811634,
          -14.811447279040877
        ]
      }
    }
  ]
}